[{"OBJECT_NAME":"STARLINK-4675","OBJECT_ID":"2022-104P","EPOCH":"2026-03-09T17:37:36.637248","MEAN_MOTION":15.08838402,"ECCENTRICITY":0.00011377,"INCLINATION":53.2157,"RA_OF_ASC_NODE":243.775,"ARG_OF_PERICENTER":90.1206,"MEAN_ANOMALY":269.9916,"EPHEMERIS_TYPE":0,"CLASSIFICATION_TYPE":"U","NORAD_CAT_ID":53601,"ELEMENT_SET_NO":999,"REV_AT_EPOCH":19562,"BSTAR":7.1024646e-5,"MEAN_MOTION_DOT":8.43e-6,"MEAN_MOTION_DDOT":0},{"OBJECT_NAME":"CZ-6A DEB","OBJECT_ID":"2022-151AFR","EPOCH":"2026-03-09T05:35:50.250336","MEAN_MOTION":14.7956831,"ECCENTRICITY":0.01345943,"INCLINATION":98.6622,"RA_OF_ASC_NODE":165.7254,"ARG_OF_PERICENTER":140.0218,"MEAN_ANOMALY":221.0996,"EPHEMERIS_TYPE":0,"CLASSIFICATION_TYPE":"U","NORAD_CAT_ID":56641,"ELEMENT_SET_NO":999,"REV_AT_EPOCH":15895,"BSTAR":0.00092929705,"MEAN_MOTION_DOT":8.055e-5,"MEAN_MOTION_DDOT":0}]
